FENGYUN 3D              
1 43010U 17072A   26164.90551870  .00000180  00000+0  10709-3 0  9997
2 43010  99.0117 139.2681 0002574  67.7006 292.4442 14.19739376444527
NOAA 20 (JPSS-1)        
1 43013U 17073A   26164.82944647  .00000020  00000+0  30441-4 0  9999
2 43013  98.7773 104.3219 0000288  70.1500 289.9707 14.19511127443998
GOES 17                 
1 43226U 18022A   26164.53035343 -.00000172  00000+0  00000+0 0  9994
2 43226   0.9277  85.7717 0000415  32.1494 245.3562  1.00270307 30383
SENTINEL-3B             
1 43437U 18039A   26164.75333811  .00000106  00000+0  61977-4 0  9992
2 43437  98.6250 232.3347 0000760  83.1096 277.0170 14.26733919423634
FENGYUN 2H              
1 43491U 18050A   26164.84687149 -.00000122  00000+0  00000+0 0  9995
2 43491   3.0212  79.1157 0001920 135.2738  72.0665  1.00269978 29405
METOP-C                 
1 43689U 18087A   26164.83022573  .00000099  00000+0  65024-4 0  9991
2 43689  98.6645 224.4951 0001647 133.3293 226.8022 14.21511265394353
GEO-KOMPSAT-2A          
1 43823U 18100A   26164.85857528 -.00000333  00000+0  00000+0 0  9995
2 43823   0.0498 134.0754 0001795 310.8625 254.5827  1.00272168 27597
METEOR-M2 2             
1 44387U 19038A   26164.87285619  .00000126  00000+0  74360-4 0  9994
2 44387  98.9137 152.1089 0002146  53.5648 306.5728 14.24365324360829
ARKTIKA-M 1             
1 47719U 21016A   26160.51571443 -.00000149  00000+0  00000+0 0  9996
2 47719  63.2417  58.7595 7285674 269.8905  14.6803  2.00625436 38630
FENGYUN 3E              
1 49008U 21062A   26164.88975042 -.00000185  00000+0 -66320-4 0  9990
2 49008  98.7490 168.3341 0002824  91.0529 269.0971 14.19903567256112
GOES 18                 
1 51850U 22021A   26164.66351669  .00000107  00000+0  00000+0 0  9993
2 51850   0.0052 236.9985 0000469 287.1488 199.6934  1.00271975  6556
NOAA 21 (JPSS-2)        
1 54234U 22150A   26164.79198669  .00000036  00000+0  37718-4 0  9990
2 54234  98.7061 103.6382 0001458 161.5897 198.5332 14.19564877186063
METEOSAT-12 (MTG-I1)    
1 54743U 22170C   26164.83313328  .00000001  00000+0  00000+0 0  9994
2 54743   0.7346  22.3872 0003154  72.1419 107.1196  1.00271937 12947
TIANMU-1 03             
1 55973U 23039A   26164.81650784  .00015785  00000+0  31212-3 0  9991
2 55973  97.5222 338.6544 0004259 107.3643 252.8072 15.47197126180317
TIANMU-1 04             
1 55974U 23039B   26164.80728304  .00015965  00000+0  30921-3 0  9991
2 55974  97.5161 337.7981 0004828 104.6472 255.5313 15.47792800180326
TIANMU-1 05             
1 55975U 23039C   26164.86179024  .00015831  00000+0  31380-3 0  9999
2 55975  97.5205 338.3174 0003865 122.4068 237.7556 15.47126305180306
TIANMU-1 06             
1 55976U 23039D   26164.81045324  .00015754  00000+0  30617-3 0  9996
2 55976  97.5213 338.8964 0004267 119.2374 240.9303 15.47697914180326
FENGYUN 3G              
1 56232U 23055A   26164.82408751  .00024819  00000+0  40322-3 0  9994
2 56232  49.9937   3.3499 0006906 282.4978  77.5217 15.52488293179485
METEOR-M2 3             
1 57166U 23091A   26164.86640551  .00000011  00000+0  23804-4 0  9996
2 57166  98.6090 219.9126 0004172 163.8863 196.2449 14.24046518154042
TIANMU-1 07             
1 57399U 23101A   26164.82959758  .00006694  00000+0  23466-3 0  9990
2 57399  97.2597 215.5749 0003937 128.3025 231.8571 15.29772219161134
TIANMU-1 08             
1 57400U 23101B   26164.86166023  .00006493  00000+0  22759-3 0  9993
2 57400  97.2585 215.3773 0005441 122.9827 237.1938 15.29777347161134
TIANMU-1 09             
1 57401U 23101C   26164.84514058  .00006655  00000+0  23303-3 0  9993
2 57401  97.2544 214.7787 0004357 134.2707 225.8892 15.29807236161130
TIANMU-1 10             
1 57402U 23101D   26164.87813034  .00007129  00000+0  24960-3 0  9990
2 57402  97.2623 215.8580 0005981 134.8276 225.3452 15.29779246161139
FENGYUN 3F              
1 57490U 23111A   26164.80327998  .00000046  00000+0  42175-4 0  9990
2 57490  98.6835 234.8749 0001589  95.4504 264.6853 14.19938546148381
ARKTIKA-M 2             
1 58584U 23198A   26160.78386103  .00000212  00000+0  00000+0 0  9997
2 58584  63.2205 155.1874 6900401 267.4353  18.7899  2.00606537 18179
TIANMU-1 11             
1 58645U 23205A   26164.84249215  .00005850  00000+0  22351-3 0  9997
2 58645  97.3444 186.4517 0009354  28.2246 331.9498 15.26964755137017
TIANMU-1 12             
1 58646U 23205B   26164.87831075  .00006194  00000+0  23683-3 0  9993
2 58646  97.3432 186.2433 0007136  15.4534 344.6922 15.26928703137009
TIANMU-1 13             
1 58647U 23205C   26164.84463567  .00005917  00000+0  22742-3 0  9995
2 58647  97.3462 186.4823 0006311 354.5329   5.5840 15.26782154136998
TIANMU-1 14             
1 58648U 23205D   26164.89547708  .00005892  00000+0  22613-3 0  9990
2 58648  97.3397 185.7167 0007277 358.1177   2.0033 15.26827507137003
TIANMU-1 19             
1 58660U 23208A   26164.82419634  .00008541  00000+0  28300-3 0  9999
2 58660  97.4503 281.1066 0004068 343.2737  16.8369 15.31528590136817
TIANMU-1 20             
1 58661U 23208B   26164.86460409  .00008608  00000+0  27477-3 0  9998
2 58661  97.4444 281.7791 0006294 347.3579  12.7504 15.32720120136916
