OBJECT_NAME,OBJECT_ID,EPOCH,MEAN_MOTION,ECCENTRICITY,INCLINATION,RA_OF_ASC_NODE,ARG_OF_PERICENTER,MEAN_ANOMALY,EPHEMERIS_TYPE,CLASSIFICATION_TYPE,NORAD_CAT_ID,ELEMENT_SET_NO,REV_AT_EPOCH,BSTAR,MEAN_MOTION_DOT,MEAN_MOTION_DDOT
FENGYUN 3D,2017-072A,2026-06-13T21:43:56.815680,14.19739376,.0002574,99.0117,139.2681,67.7006,292.4442,0,U,43010,999,44452,.10709E-3,.18E-5,0
NOAA 20 (JPSS-1),2017-073A,2026-06-13T19:54:24.175008,14.19511127,.0000288,98.7773,104.3219,70.1500,289.9707,0,U,43013,999,44399,.30441E-4,.2E-6,0
GOES 17,2018-022A,2026-06-13T12:43:42.536352,1.00270307,.0000415,0.9277,85.7717,32.1494,245.3562,0,U,43226,999,3038,0,-.172E-5,0
SENTINEL-3B,2018-039A,2026-06-13T18:04:48.412704,14.26733919,.000076,98.6250,232.3347,83.1096,277.0170,0,U,43437,999,42363,.61977E-4,.106E-5,0
FENGYUN 2H,2018-050A,2026-06-13T20:19:29.696736,1.00269978,.000192,3.0212,79.1157,135.2738,72.0665,0,U,43491,999,2940,0,-.122E-5,0
METOP-C,2018-087A,2026-06-13T19:55:31.503072,14.21511265,.0001647,98.6645,224.4951,133.3293,226.8022,0,U,43689,999,39435,.65024E-4,.99E-6,0
GEO-KOMPSAT-2A,2018-100A,2026-06-13T20:36:20.904192,1.00272168,.0001795,0.0498,134.0754,310.8625,254.5827,0,U,43823,999,2759,0,-.333E-5,0
METEOR-M2 2,2019-038A,2026-06-13T20:56:54.774816,14.24365324,.0002146,98.9137,152.1089,53.5648,306.5728,0,U,44387,999,36082,.7436E-4,.126E-5,0
ARKTIKA-M 1,2021-016A,2026-06-09T12:22:37.726752,2.00625436,.7285674,63.2417,58.7595,269.8905,14.6803,0,U,47719,999,3863,0,-.149E-5,0
FENGYUN 3E,2021-062A,2026-06-13T21:21:14.436288,14.19903567,.0002824,98.7490,168.3341,91.0529,269.0971,0,U,49008,999,25611,-.6632E-4,-.185E-5,0
GOES 18,2022-021A,2026-06-13T15:55:27.842016,1.00271975,.0000469,0.0052,236.9985,287.1488,199.6934,0,U,51850,999,655,0,.107E-5,0
NOAA 21 (JPSS-2),2022-150A,2026-06-13T19:00:27.650016,14.19564877,.0001458,98.7061,103.6382,161.5897,198.5332,0,U,54234,999,18606,.37718E-4,.36E-6,0
METEOSAT-12 (MTG-I1),2022-170C,2026-06-13T19:59:42.715392,1.00271937,.0003154,0.7346,22.3872,72.1419,107.1196,0,U,54743,999,1294,0,.1E-7,0
TIANMU-1 03,2023-039A,2026-06-13T19:35:46.277376,15.47197126,.0004259,97.5222,338.6544,107.3643,252.8072,0,U,55973,999,18031,.31212E-3,.15785E-3,0
TIANMU-1 04,2023-039B,2026-06-13T19:22:29.254656,15.47792800,.0004828,97.5161,337.7981,104.6472,255.5313,0,U,55974,999,18032,.30921E-3,.15965E-3,0
TIANMU-1 05,2023-039C,2026-06-13T20:40:58.676736,15.47126305,.0003865,97.5205,338.3174,122.4068,237.7556,0,U,55975,999,18030,.3138E-3,.15831E-3,0
TIANMU-1 06,2023-039D,2026-06-13T19:27:03.159936,15.47697914,.0004267,97.5213,338.8964,119.2374,240.9303,0,U,55976,999,18032,.30617E-3,.15754E-3,0
FENGYUN 3G,2023-055A,2026-06-13T19:46:41.160864,15.52488293,.0006906,49.9937,3.3499,282.4978,77.5217,0,U,56232,999,17948,.40322E-3,.24819E-3,0
METEOR-M2 3,2023-091A,2026-06-13T20:47:37.436064,14.24046518,.0004172,98.6090,219.9126,163.8863,196.2449,0,U,57166,999,15404,.23804E-4,.11E-6,0
TIANMU-1 07,2023-101A,2026-06-13T19:54:37.230912,15.29772219,.0003937,97.2597,215.5749,128.3025,231.8571,0,U,57399,999,16113,.23466E-3,.6694E-4,0
TIANMU-1 08,2023-101B,2026-06-13T20:40:47.443872,15.29777347,.0005441,97.2585,215.3773,122.9827,237.1938,0,U,57400,999,16113,.22759E-3,.6493E-4,0
TIANMU-1 09,2023-101C,2026-06-13T20:17:00.146112,15.29807236,.0004357,97.2544,214.7787,134.2707,225.8892,0,U,57401,999,16113,.23303E-3,.6655E-4,0
TIANMU-1 10,2023-101D,2026-06-13T21:04:30.461376,15.29779246,.0005981,97.2623,215.8580,134.8276,225.3452,0,U,57402,999,16113,.2496E-3,.7129E-4,0
FENGYUN 3F,2023-111A,2026-06-13T19:16:43.390272,14.19938546,.0001589,98.6835,234.8749,95.4504,264.6853,0,U,57490,999,14838,.42175E-4,.46E-6,0
ARKTIKA-M 2,2023-198A,2026-06-09T18:48:45.592992,2.00606537,.69004015,63.2205,155.1874,267.4353,18.7899,0,U,58584,999,1817,0,.212E-5,0
TIANMU-1 11,2023-205A,2026-06-13T20:13:11.321760,15.26964755,.0009354,97.3444,186.4517,28.2246,331.9498,0,U,58645,999,13701,.22351E-3,.585E-4,0
TIANMU-1 12,2023-205B,2026-06-13T21:04:46.048800,15.26928703,.0007136,97.3432,186.2433,15.4534,344.6922,0,U,58646,999,13700,.23683E-3,.6194E-4,0
TIANMU-1 13,2023-205C,2026-06-13T20:16:16.521888,15.26782154,.0006311,97.3462,186.4823,354.5329,5.5840,0,U,58647,999,13699,.22742E-3,.5917E-4,0
TIANMU-1 14,2023-205D,2026-06-13T21:29:29.219712,15.26827507,.0007277,97.3397,185.7167,358.1177,2.0033,0,U,58648,999,13700,.22613E-3,.5892E-4,0
TIANMU-1 19,2023-208A,2026-06-13T19:46:50.563776,15.31528590,.0004068,97.4503,281.1066,343.2737,16.8369,0,U,58660,999,13681,.283E-3,.8541E-4,0
TIANMU-1 20,2023-208B,2026-06-13T20:45:01.793376,15.32720120,.0006294,97.4444,281.7791,347.3579,12.7504,0,U,58661,999,13691,.27477E-3,.8608E-4,0
